NORAD_CAT_ID,OBJECT_NAME,OBJECT_TYPE,EPOCH,MEAN_MOTION,ECCENTRICITY,INCLINATION,RA_OF_ASC_NODE,ARG_OF_PERICENTER,MEAN_ANOMALY,BSTAR,MEAN_MOTION_DOT,MEAN_MOTION_DDOT,TLE_LINE0,TLE_LINE1,TLE_LINE2,SEMIMAJOR_AXIS,PERIOD,APOGEE,PERIGEE,DECAYED
53541.0,STARLINK-4485,PAYLOAD,2023-10-07 11:28:42,15.08834739,0.0001437,53.2172,83.5008,94.0261,266.0896,0.00025794,3.819e-05,0.0,0 STARLINK-4485,1 53541U 22101Q   23280.47827292  .00003819  00000-0  25794-3 0  9991,2 53541  53.2172  83.5008 0001437  94.0261 266.0896 15.08834739 63375,6917.896,95.438,540.756,538.767,0.0
53541.0,STARLINK-4485,PAYLOAD,2023-10-07 16:14:51,15.08839945,0.0001427,53.2175,82.609,93.4037,266.7119,0.00027111,4.029e-05,0.0,0 STARLINK-4485,1 53541U 22101Q   23280.67699033  .00004029  00000-0  27111-3 0  9992,2 53541  53.2175  82.6090 0001427  93.4037 266.7119 15.08839945 62718,6917.881,95.438,540.733,538.758,0.0
53541.0,STARLINK-4485,PAYLOAD,2023-10-07 21:01:00,15.08849081,0.0001354,53.2165,81.7157,94.4455,265.6692,0.00020444,2.968e-05,0.0,0 STARLINK-4485,1 53541U 22101Q   23280.87570433  .00002968  00000-0  20444-3 0  9998,2 53541  53.2165  81.7157 0001354  94.4455 265.6692 15.08849081 63431,6917.853,95.437,540.654,538.781,0.0
53541.0,STARLINK-4485,PAYLOAD,2023-10-08 11:19:29,15.08837686,0.0001576,53.2176,79.0416,94.2079,265.9093,2.3046e-05,7.9e-07,0.0,0 STARLINK-4485,1 53541U 22101Q   23281.47187065  .00000079  00000-0  23046-4 0  9993,2 53541  53.2176  79.0416 0001576  94.2079 265.9093 15.08837686 63523,6917.887,95.438,540.843,538.662,0.0
53541.0,STARLINK-4485,PAYLOAD,2023-10-08 17:41:02,15.08841885,0.0001517,53.2184,77.8537,94.1002,266.0163,8.5651e-05,1.075e-05,0.0,0 STARLINK-4485,1 53541U 22101Q   23281.73682877  .00001075  00000-0  85651-4 0  9990,2 53541  53.2184  77.8537 0001517  94.1002 266.0163 15.08841885 62875,6917.875,95.437,540.789,538.69,0.0
53541.0,STARLINK-4485,PAYLOAD,2023-10-09 11:10:16,15.08836238,0.0001443,53.2168,74.5803,102.5613,257.5541,-2.8976e-05,-7.49e-06,0.0,0 STARLINK-4485,1 53541U 22101Q   23282.46547165 -.00000749  00000-0 -28976-4 0  9997,2 53541  53.2168  74.5803 0001443 102.5613 257.5541 15.08836238 63677,6917.892,95.438,540.755,538.759,0.0
53541.0,STARLINK-4485,PAYLOAD,2023-10-09 19:07:11,15.08850786,0.0001324,53.2171,73.092,92.9491,267.1653,0.00018044,2.586e-05,0.0,0 STARLINK-4485,1 53541U 22101Q   23282.79666387  .00002586  00000-0  18044-3 0  9994,2 53541  53.2171  73.0920 0001324  92.9491 267.1653 15.08850786 63720,6917.847,95.437,540.628,538.796,0.0
53541.0,STARLINK-4485,PAYLOAD,2023-10-10 11:01:03,15.08840927,0.0001497,53.217,70.1184,85.0005,275.1158,0.00020494,2.975e-05,0.0,0 STARLINK-4485,1 53541U 22101Q   23283.45906988  .00002975  00000-0  20494-3 0  9996,2 53541  53.2170  70.1184 0001497  85.0005 275.1158 15.08840927 63134,6917.878,95.437,540.778,538.707,0.0
53541.0,STARLINK-4485,PAYLOAD,2023-10-10 17:22:35,15.08847542,0.0001372,53.2168,68.9297,80.8125,279.3022,0.00015627,2.2e-05,0.0,0 STARLINK-4485,1 53541U 22101Q   23283.72402613  .00002200  00000-0  15627-3 0  9995,2 53541  53.2168  68.9297 0001372  80.8125 279.3022 15.08847542 63865,6917.857,95.437,540.671,538.773,0.0
53541.0,STARLINK-4485,PAYLOAD,2023-10-11 09:16:28,15.08827736,0.0001472,53.2181,65.9572,89.2006,270.9154,-8.9861e-05,-1.717e-05,0.0,0 STARLINK-4485,1 53541U 22101Q   23284.38643760 -.00001717  00000-0 -89861-4 0  9994,2 53541  53.2181  65.9572 0001472  89.2006 270.9154 15.08827736 63276,6917.918,95.438,540.801,538.765,0.0
53541.0,STARLINK-4485,PAYLOAD,2023-10-11 14:02:37,15.08832267,0.0001753,53.2174,65.0648,85.4172,274.702,7.6939e-06,-1.66e-06,0.0,0 STARLINK-4485,1 53541U 22101Q   23284.58515731 -.00000166  00000-0  76939-5 0  9991,2 53541  53.2174  65.0648 0001753  85.4172 274.7020 15.08832267 63995,6917.904,95.438,540.982,538.556,0.0
53541.0,STARLINK-4485,PAYLOAD,2023-10-11 17:13:23,15.0884014,0.000145,53.2175,64.4684,93.4221,266.6937,5.6692e-05,6.14e-06,0.0,0 STARLINK-4485,1 53541U 22101Q   23284.71763250  .00000614  00000-0  56692-4 0  9997,2 53541  53.2175  64.4684 0001450  93.4221 266.6937 15.08840140 63320,6917.88,95.438,540.748,538.742,0.0
53541.0,STARLINK-4485,PAYLOAD,2023-10-12 02:45:42,15.08841943,0.0001439,53.2179,62.6848,89.5903,270.5254,5.0504e-05,5.16e-06,0.0,0 STARLINK-4485,1 53541U 22101Q   23285.11507259  .00000516  00000-0  50504-4 0  9994,2 53541  53.2179  62.6848 0001439  89.5903 270.5254 15.08841943 64077,6917.874,95.437,540.735,538.744,0.0
53541.0,STARLINK-4485,PAYLOAD,2023-10-12 15:28:47,15.08850322,0.0001444,53.2177,60.3055,87.7602,272.3555,0.00022861,3.353e-05,0.0,0 STARLINK-4485,1 53541U 22101Q   23285.64498929  .00003353  00000-0  22861-3 0  9991,2 53541  53.2177  60.3055 0001444  87.7602 272.3555 15.08850322 64156,6917.849,95.437,540.713,538.715,0.0
53541.0,STARLINK-4485,PAYLOAD,2023-10-13 02:36:29,15.08847363,0.000137,53.218,58.2257,87.5521,272.5627,0.00014388,2.003e-05,0.0,0 STARLINK-4485,1 53541U 22101Q   23286.10866984  .00002003  00000-0  14388-3 0  9999,2 53541  53.2180  58.2257 0001370  87.5521 272.5627 15.08847363 63530,6917.858,95.437,540.671,538.775,0.0
53541.0,STARLINK-4485,PAYLOAD,2023-10-13 12:08:48,15.08838096,0.0001727,53.2176,56.4413,99.6006,260.5181,0.00016859,2.396e-05,0.0,0 STARLINK-4485,1 53541U 22101Q   23286.50611727  .00002396  00000-0  16859-3 0  9996,2 53541  53.2176  56.4413 0001727  99.6006 260.5181 15.08838096 63598,6917.886,95.438,540.946,538.556,0.0
53541.0,STARLINK-4485,PAYLOAD,2023-10-13 15:19:34,15.08838284,0.0001514,53.2172,55.8464,100.0255,260.0908,0.00018849,2.713e-05,0.0,0 STARLINK-4485,1 53541U 22101Q   23286.63859690  .00002713  00000-0  18849-3 0  9997,2 53541  53.2172  55.8464 0001514 100.0255 260.0908 15.08838284 64301,6917.886,95.438,540.798,538.703,0.0
53541.0,STARLINK-4485,PAYLOAD,2023-10-14 13:34:58,15.08850209,0.0001736,53.2194,51.683,104.2065,255.912,0.0001519,2.131e-05,0.0,0 STARLINK-4485,1 53541U 22101Q   23287.56594923  .00002131  00000-0  15190-3 0  9995,2 53541  53.2194  51.6830 0001736 104.2065 255.9120 15.08850209 64442,6917.849,95.437,540.915,538.513,0.0
53541.0,STARLINK-4485,PAYLOAD,2023-10-14 18:21:07,15.08857549,0.0001411,53.2178,50.7892,87.106,273.0093,0.00016816,2.391e-05,0.0,0 STARLINK-4485,1 53541U 22101Q   23287.76466471  .00002391  00000-0  16816-3 0  9997,2 53541  53.2178  50.7892 0001411  87.1060 273.0093 15.08857549 63786,6917.827,95.436,540.668,538.716,0.0
53541.0,STARLINK-4485,PAYLOAD,2023-10-15 11:50:22,15.08835442,0.0001712,53.2186,47.5197,103.7178,256.4005,1.1889e-05,-9.9e-07,0.0,0 STARLINK-4485,1 53541U 22101Q   23288.49331683 -.00000099  00000-0  11889-4 0  9994,2 53541  53.2186  47.5197 0001712 103.7178 256.4005 15.08835442 63894,6917.894,95.438,540.944,538.575,0.0
53541.0,STARLINK-4485,PAYLOAD,2023-10-15 13:25:45,15.08836912,0.0001707,53.2188,47.2224,103.6444,256.4738,4.3937e-05,4.11e-06,0.0,0 STARLINK-4485,1 53541U 22101Q   23288.55955668  .00000411  00000-0  43937-4 0  9992,2 53541  53.2188  47.2224 0001707 103.6444 256.4738 15.08836912 64597,6917.89,95.438,540.936,538.574,0.0
53541.0,STARLINK-4485,PAYLOAD,2023-10-15 15:01:08,15.08838826,0.0001623,53.2185,46.9251,101.366,258.7515,6.0277e-05,6.71e-06,0.0,0 STARLINK-4485,1 53541U 22101Q   23288.62579613  .00000671  00000-0  60277-4 0  9996,2 53541  53.2185  46.9251 0001623 101.3660 258.7515 15.08838826 64608,6917.884,95.438,540.872,538.626,0.0
53541.0,STARLINK-4485,PAYLOAD,2023-10-16 13:16:32,15.08840486,0.0001596,53.2184,42.762,97.5963,262.5211,0.00011661,1.568e-05,0.0,0 STARLINK-4485,1 53541U 22101Q   23289.55315870  .00001568  00000-0  11661-3 0  9990,2 53541  53.2184  42.7620 0001596  97.5963 262.5211 15.08840486 64748,6917.879,95.438,540.848,538.64,0.0
53541.0,STARLINK-4485,PAYLOAD,2023-10-17 11:31:57,15.08840669,0.000158,53.2187,38.6008,100.6296,259.4874,0.00019175,2.765e-05,0.0,0 STARLINK-4485,1 53541U 22101Q   23290.48052156  .00002765  00000-0  19175-3 0  9997,2 53541  53.2187  38.6008 0001580 100.6296 259.4874 15.08840669 64881,6917.878,95.438,540.836,538.65,0.0
53541.0,STARLINK-4485,PAYLOAD,2023-10-18 11:22:44,15.08838324,0.0001475,53.2178,34.1396,89.6755,270.4406,0.00011113,1.481e-05,0.0,0 STARLINK-4485,1 53541U 22101Q   23291.47412548  .00001481  00000-0  11113-3 0  9990,2 53541  53.2178  34.1396 0001475  89.6755 270.4406 15.08838324 64341,6917.886,95.438,540.771,538.73,0.0
53541.0,STARLINK-4485,PAYLOAD,2023-10-19 00:05:49,15.08850988,0.0001699,53.2185,31.7635,80.283,279.8354,0.0003274,4.928e-05,0.0,0 STARLINK-4485,1 53541U 22101Q   23292.00404197  .00004928  00000-0  32740-3 0  9999,2 53541  53.2185  31.7635 0001699  80.2830 279.8354 15.08850988 64421,6917.847,95.437,540.887,538.536,0.0
53541.0,STARLINK-4485,PAYLOAD,2023-10-19 11:13:30,15.08855758,0.0001756,53.2184,29.682,80.9202,279.1989,0.00043339,6.619e-05,0.0,0 STARLINK-4485,1 53541U 22101Q   23292.46771915  .00006619  00000-0  43339-3 0  9999,2 53541  53.2184  29.6820 0001756  80.9202 279.1989 15.08855758 65187,6917.832,95.437,540.912,538.482,0.0
53541.0,STARLINK-4485,PAYLOAD,2023-10-20 11:04:18,15.08835062,0.0001594,53.2167,25.2204,92.756,267.3614,-0.00012583,-2.29e-05,0.0,0 STARLINK-4485,1 53541U 22101Q   23293.46132200 -.00002290  00000-0 -12583-3 0  9998,2 53541  53.2167  25.2204 0001594  92.7560 267.3614 15.08835062 64644,6917.895,95.438,540.863,538.658,0.0
53541.0,STARLINK-4485,PAYLOAD,2023-10-21 12:30:28,15.08844609,0.0001591,53.2171,20.4622,87.1628,272.9546,0.00060969,9.43e-05,0.0,0 STARLINK-4485,1 53541U 22101Q   23294.52116561  .00009430  00000-0  60969-3 0  9990,2 53541  53.2171  20.4622 0001591  87.1628 272.9546 15.08844609 64801,6917.866,95.437,540.832,538.631,0.0
53541.0,STARLINK-4485,PAYLOAD,2023-10-21 15:41:14,15.08852246,0.0001651,53.2174,19.8666,86.9076,273.2105,0.00084181,0.00013139,0.0,0 STARLINK-4485,1 53541U 22101Q   23294.65364415  .00013139  00000-0  84181-3 0  9990,2 53541  53.2174  19.8666 0001651  86.9076 273.2105 15.08852246 65515,6917.843,95.437,540.85,538.566,0.0
